start=new Date('2022-09-18T00:00:00.000Z').valueOf();
sats=[{"OBJECT_NAME":"STARLINK-3763","ARG_OF_PERICENTER":"67.2783","MEAN_MOTION_DOT":"0.00004081","ECCENTRICITY":"0.00017710","TLE_LINE1":"1 52556U 22051Z   22260.74301353  .00004081  00000-0  27414-3 0  9995","REF_FRAME":"TEME","OBJECT_ID":"2022-051Z","FILE":"3576621","MEAN_ELEMENT_THEORY":"SGP4","TIME_SYSTEM":"UTC","PERIOD":"95.436","EPHEMERIS_TYPE":"0","RA_OF_ASC_NODE":"70.6547","CENTER_NAME":"EARTH","NORAD_CAT_ID":"52556","OBJECT_TYPE":"PAYLOAD","BSTAR":"0.00027414000000","ELEMENT_SET_NO":"999","LAUNCH_DATE":"2022-05-13","REV_AT_EPOCH":"1980","MEAN_MOTION_DDOT":"0.0000000000000","GP_ID":"212872653","MEAN_MOTION":"15.08867388","APOAPSIS":"540.887","SEMIMAJOR_AXIS":"6917.797","CLASSIFICATION_TYPE":"U","RCS_SIZE":"LARGE","EPOCH":"2022-09-17T17:49:56.368992","MEAN_ANOMALY":"292.8396","INCLINATION":"53.2180","TLE_LINE2":"2 52556  53.2180  70.6547 0001771  67.2783 292.8396 15.08867388 19803","COUNTRY_CODE":"US","SITE":"AFWTR","DECAY_DATE":null,"PERIAPSIS":"538.437"},{"ARG_OF_PERICENTER":"63.4637","OBJECT_NAME":"STARLINK-3943","MEAN_MOTION_DOT":"-0.00000608","ECCENTRICITY":"0.00016340","TLE_LINE1":"1 52557U 22051AA  22260.75639107 -.00000608  00000-0 -20081-4 0  9995","REF_FRAME":"TEME","OBJECT_ID":"2022-051AA","FILE":"3576621","MEAN_ELEMENT_THEORY":"SGP4","TIME_SYSTEM":"UTC","PERIOD":"95.438","EPHEMERIS_TYPE":"0","RA_OF_ASC_NODE":"65.5744","CENTER_NAME":"EARTH","NORAD_CAT_ID":"52557","OBJECT_TYPE":"PAYLOAD","ELEMENT_SET_NO":"999","BSTAR":"-0.00002008100000","LAUNCH_DATE":"2022-05-13","MEAN_MOTION_DDOT":"0.0000000000000","REV_AT_EPOCH":"1988","GP_ID":"212872496","MEAN_MOTION":"15.08831035","APOAPSIS":"540.903","SEMIMAJOR_AXIS":"6917.908","CLASSIFICATION_TYPE":"U","RCS_SIZE":"LARGE","EPOCH":"2022-09-17T18:09:12.188448","MEAN_ANOMALY":"296.6522","INCLINATION":"53.2201","TLE_LINE2":"2 52557  53.2201  65.5744 0001634  63.4637 296.6522 15.08831035 19885","COUNTRY_CODE":"US","SITE":"AFWTR","DECAY_DATE":null,"PERIAPSIS":"538.642"},{"RCS_SIZE":"LARGE","MEAN_ANOMALY":"301.0773","INCLINATION":"53.2120","EPOCH":"2022-09-17T18:10:32.668320","TLE_LINE2":"2 52558  53.2120  55.5947 0001735  59.0390 301.0773 15.08838636 20019","DECAY_DATE":null,"SITE":"AFWTR","PERIAPSIS":"538.549","COUNTRY_CODE":"US","REV_AT_EPOCH":"2001","LAUNCH_DATE":"2022-05-13","MEAN_MOTION_DDOT":"0.0000000000000","MEAN_MOTION":"15.08838636","GP_ID":"212872728","APOAPSIS":"540.950","SEMIMAJOR_AXIS":"6917.885","CLASSIFICATION_TYPE":"U","FILE":"3576621","MEAN_ELEMENT_THEORY":"SGP4","TIME_SYSTEM":"UTC","EPHEMERIS_TYPE":"0","PERIOD":"95.438","CENTER_NAME":"EARTH","NORAD_CAT_ID":"52558","RA_OF_ASC_NODE":"55.5947","ELEMENT_SET_NO":"999","BSTAR":"0.00004658800000","OBJECT_TYPE":"PAYLOAD","MEAN_MOTION_DOT":"0.00000453","OBJECT_NAME":"STARLINK-3954","ARG_OF_PERICENTER":"59.0390","ECCENTRICITY":"0.00017350","OBJECT_ID":"2022-051AB","TLE_LINE1":"1 52558U 22051AB  22260.75732255  .00000453  00000-0  46588-4 0  9990","REF_FRAME":"TEME"},{"APOAPSIS":"540.821","CLASSIFICATION_TYPE":"U","SEMIMAJOR_AXIS":"6917.887","LAUNCH_DATE":"2022-05-13","REV_AT_EPOCH":"2002","MEAN_MOTION_DDOT":"0.0000000000000","MEAN_MOTION":"15.08837748","GP_ID":"212872343","TLE_LINE2":"2 52559  53.2182  55.3064 0001545  64.3679 295.7473 15.08837748 20024","PERIAPSIS":"538.683","DECAY_DATE":null,"SITE":"AFWTR","COUNTRY_CODE":"US","RCS_SIZE":"MEDIUM","INCLINATION":"53.2182","MEAN_ANOMALY":"295.7473","EPOCH":"2022-09-17T19:36:40.929696","ECCENTRICITY":"0.00015450","OBJECT_ID":"2022-051AC","REF_FRAME":"TEME","TLE_LINE1":"1 52559U 22051AC  22260.81714039  .00001369  00000-0  10408-3 0  9996","MEAN_MOTION_DOT":"0.00001369","ARG_OF_PERICENTER":"64.3679","OBJECT_NAME":"STARLINK-3953","NORAD_CAT_ID":"52559","CENTER_NAME":"EARTH","RA_OF_ASC_NODE":"55.3064","ELEMENT_SET_NO":"999","BSTAR":"0.00010408000000","OBJECT_TYPE":"PAYLOAD","TIME_SYSTEM":"UTC","FILE":"3576621","MEAN_ELEMENT_THEORY":"SGP4","EPHEMERIS_TYPE":"0","PERIOD":"95.438"},{"APOAPSIS":"541.011","SEMIMAJOR_AXIS":"6917.891","CLASSIFICATION_TYPE":"U","REV_AT_EPOCH":"2001","LAUNCH_DATE":"2022-05-13","MEAN_MOTION_DDOT":"0.0000000000000","GP_ID":"212873069","MEAN_MOTION":"15.08836385","TLE_LINE2":"2 52560  53.2177  55.5935 0001813  63.1334 296.9843 15.08836385 20011","COUNTRY_CODE":"US","DECAY_DATE":null,"SITE":"AFWTR","PERIAPSIS":"538.502","RCS_SIZE":"LARGE","EPOCH":"2022-09-17T18:05:13.424640","INCLINATION":"53.2177","MEAN_ANOMALY":"296.9843","ECCENTRICITY":"0.00018130","TLE_LINE1":"1 52560U 22051AD  22260.75362760 -.00000171  00000-0  73283-5 0  9994","REF_FRAME":"TEME","OBJECT_ID":"2022-051AD","ARG_OF_PERICENTER":"63.1334","OBJECT_NAME":"STARLINK-3956","MEAN_MOTION_DOT":"-0.00000171","RA_OF_ASC_NODE":"55.5935","CENTER_NAME":"EARTH","NORAD_CAT_ID":"52560","OBJECT_TYPE":"PAYLOAD","BSTAR":"0.00000732830000","ELEMENT_SET_NO":"999","FILE":"3576621","MEAN_ELEMENT_THEORY":"SGP4","TIME_SYSTEM":"UTC","PERIOD":"95.438","EPHEMERIS_TYPE":"0"},{"LAUNCH_DATE":"2022-05-13","MEAN_MOTION_DDOT":"0.0000000000000","REV_AT_EPOCH":"1982","GP_ID":"212872913","MEAN_MOTION":"15.08839555","APOAPSIS":"540.810","SEMIMAJOR_AXIS":"6917.882","CLASSIFICATION_TYPE":"U","RCS_SIZE":"LARGE","EPOCH":"2022-09-17T20:50:09.916512","INCLINATION":"53.2171","MEAN_ANOMALY":"308.7236","TLE_LINE2":"2 52561  53.2171  70.0963 0001537  51.3894 308.7236 15.08839555 19829","COUNTRY_CODE":"US","SITE":"AFWTR","DECAY_DATE":null,"PERIAPSIS":"538.683","OBJECT_NAME":"STARLINK-3955","ARG_OF_PERICENTER":"51.3894","MEAN_MOTION_DOT":"0.00000997","ECCENTRICITY":"0.00015370","TLE_LINE1":"1 52561U 22051AE  22260.86817033  .00000997  00000-0  80743-4 0  9998","REF_FRAME":"TEME","OBJECT_ID":"2022-051AE","MEAN_ELEMENT_THEORY":"SGP4","FILE":"3576621","TIME_SYSTEM":"UTC","PERIOD":"95.438","EPHEMERIS_TYPE":"0","RA_OF_ASC_NODE":"70.0963","CENTER_NAME":"EARTH","NORAD_CAT_ID":"52561","OBJECT_TYPE":"PAYLOAD","BSTAR":"0.00008074300000","ELEMENT_SET_NO":"999"},{"EPHEMERIS_TYPE":"0","PERIOD":"95.438","TIME_SYSTEM":"UTC","FILE":"3576621","MEAN_ELEMENT_THEORY":"SGP4","BSTAR":"0.00001586400000","ELEMENT_SET_NO":"999","OBJECT_TYPE":"PAYLOAD","NORAD_CAT_ID":"52562","CENTER_NAME":"EARTH","RA_OF_ASC_NODE":"55.3242","MEAN_MOTION_DOT":"-0.00000036","OBJECT_NAME":"STARLINK-3957","ARG_OF_PERICENTER":"51.0625","OBJECT_ID":"2022-051AF","REF_FRAME":"TEME","TLE_LINE1":"1 52562U 22051AF  22260.81251094 -.00000036  00000-0  15864-4 0  9990","ECCENTRICITY":"0.00017460","INCLINATION":"53.2170","MEAN_ANOMALY":"309.0522","EPOCH":"2022-09-17T19:30:00.945216","RCS_SIZE":"LARGE","PERIAPSIS":"538.551","SITE":"AFWTR","DECAY_DATE":null,"COUNTRY_CODE":"US","TLE_LINE2":"2 52562  53.2170  55.3242 0001746  51.0625 309.0522 15.08835452 20024","MEAN_MOTION":"15.08835452","GP_ID":"212872313","LAUNCH_DATE":"2022-05-13","MEAN_MOTION_DDOT":"0.0000000000000","REV_AT_EPOCH":"2002","CLASSIFICATION_TYPE":"U","SEMIMAJOR_AXIS":"6917.894","APOAPSIS":"540.967"},{"COUNTRY_CODE":"US","PERIAPSIS":"538.775","SITE":"AFWTR","DECAY_DATE":null,"TLE_LINE2":"2 52563  53.2176  70.0748 0001403  58.3576 301.7553 15.08839776 19823","EPOCH":"2022-09-17T20:55:26.963040","MEAN_ANOMALY":"301.7553","INCLINATION":"53.2176","RCS_SIZE":"LARGE","CLASSIFICATION_TYPE":"U","SEMIMAJOR_AXIS":"6917.881","APOAPSIS":"540.717","GP_ID":"212872759","MEAN_MOTION":"15.08839776","LAUNCH_DATE":"2022-05-13","MEAN_MOTION_DDOT":"0.0000000000000","REV_AT_EPOCH":"1982","OBJECT_TYPE":"PAYLOAD","ELEMENT_SET_NO":"999","BSTAR":"0.00002648400000","RA_OF_ASC_NODE":"70.0748","NORAD_CAT_ID":"52563","CENTER_NAME":"EARTH","PERIOD":"95.438","EPHEMERIS_TYPE":"0","TIME_SYSTEM":"UTC","MEAN_ELEMENT_THEORY":"SGP4","FILE":"3576621","REF_FRAME":"TEME","TLE_LINE1":"1 52563U 22051AG  22260.87183985  .00000134  00000-0  26484-4 0  9998","OBJECT_ID":"2022-051AG","ECCENTRICITY":"0.00014030","OBJECT_NAME":"STARLINK-3942","ARG_OF_PERICENTER":"58.3576","MEAN_MOTION_DOT":"0.00000134"},{"TIME_SYSTEM":"UTC","FILE":"3576621","MEAN_ELEMENT_THEORY":"SGP4","EPHEMERIS_TYPE":"0","PERIOD":"95.438","NORAD_CAT_ID":"52564","CENTER_NAME":"EARTH","RA_OF_ASC_NODE":"70.4055","ELEMENT_SET_NO":"999","BSTAR":"-0.00003762800000","OBJECT_TYPE":"PAYLOAD","MEAN_MOTION_DOT":"-0.00000887","ARG_OF_PERICENTER":"66.4345","OBJECT_NAME":"STARLINK-3959","ECCENTRICITY":"0.00015000","OBJECT_ID":"2022-051AH","REF_FRAME":"TEME","TLE_LINE1":"1 52564U 22051AH  22260.79825202 -.00000887  00000-0 -37628-4 0  9994","RCS_SIZE":"LARGE","MEAN_ANOMALY":"293.6804","INCLINATION":"53.2184","EPOCH":"2022-09-17T19:09:28.974528","TLE_LINE2":"2 52564  53.2184  70.4055 0001500  66.4345 293.6804 15.08837614 19816","PERIAPSIS":"538.715","DECAY_DATE":null,"SITE":"AFWTR","COUNTRY_CODE":"US","REV_AT_EPOCH":"1981","LAUNCH_DATE":"2022-05-13","MEAN_MOTION_DDOT":"0.0000000000000","MEAN_MOTION":"15.08837614","GP_ID":"212872654","APOAPSIS":"540.790","CLASSIFICATION_TYPE":"U","SEMIMAJOR_AXIS":"6917.888"},{"OBJECT_TYPE":"PAYLOAD","BSTAR":"0.00006168000000","ELEMENT_SET_NO":"999","RA_OF_ASC_NODE":"55.3107","NORAD_CAT_ID":"52565","CENTER_NAME":"EARTH","PERIOD":"95.438","EPHEMERIS_TYPE":"0","TIME_SYSTEM":"UTC","FILE":"3576621","MEAN_ELEMENT_THEORY":"SGP4","REF_FRAME":"TEME","TLE_LINE1":"1 52565U 22051AJ  22260.81619154  .00000694  00000-0  61680-4 0  9994","OBJECT_ID":"2022-051AJ","ECCENTRICITY":"0.00014760","ARG_OF_PERICENTER":"59.1003","OBJECT_NAME":"STARLINK-3911","MEAN_MOTION_DOT":"0.00000694","COUNTRY_CODE":"US","PERIAPSIS":"538.748","DECAY_DATE":null,"SITE":"AFWTR","TLE_LINE2":"2 52565  53.2182  55.3107 0001476  59.1003 301.0134 15.08832203 20021","EPOCH":"2022-09-17T19:35:18.949056","INCLINATION":"53.2182","MEAN_ANOMALY":"301.0134","RCS_SIZE":"LARGE","CLASSIFICATION_TYPE":"U","SEMIMAJOR_AXIS":"6917.904","APOAPSIS":"540.790","GP_ID":"212872497","MEAN_MOTION":"15.08832203","MEAN_MOTION_DDOT":"0.0000000000000","LAUNCH_DATE":"2022-05-13","REV_AT_EPOCH":"2002"}];
